1 43437U 18039A   18321.60480559 +.00000001 +00000-0 +17935-4 0  9994
2 43437 098.6236 026.5521 0005048 187.4083 172.7025 14.28054739029341
1 43437U 18039A   18321.81500132 -.00000000 +00000-0 +17588-4 0  9991
2 43437 098.6236 026.7597 0005058 186.8375 173.2738 14.28054738029373
1 43437U 18039A   18322.86598003 -.00000007 +00000-0 +14678-4 0  9995
2 43437 098.6235 027.7974 0005121 183.7367 176.3776 14.28054781029521
1 43437U 18039A   18323.77682825 -.00000007 +00000-0 +14704-4 0  9992
2 43437 098.6234 028.6969 0005156 181.1123 179.0048 14.28054848029654
1 43437U 18039A   18324.19721967 -.00000004  00000-0  16103-4 0  9992
2 43437  98.6233  29.1120 0005177 180.0050 180.1132 14.28054896 29715
1 43437U 18039A   18324.61761111 -.00000001 +00000-0 +17428-4 0  9992
2 43437 098.6233 029.5271 0005202 178.7910 181.3284 14.28054936029776
1 43437U 18039A   18325.24819825 -.00117556  00000-0 -49284-1 0  9995
2 43437  98.6213  30.1513 0002293 101.8634 255.6093 14.26840825 29869
1 43437U 18039A   18325.80969988  .00000002  00000-0  18924-4 0  9998
2 43437  98.6238  30.7011 0001454 103.4924 256.6419 14.26879152 29940
1 43437U 18039A   18326.79142160 -.00000008 +00000-0 +14487-4 0  9999
2 43437 098.6232 031.6693 0001640 091.5537 268.5832 14.26879211030088
1 43437U 18039A   18327.21217678 -.00000013  00000-0  12723-4 0  9991
2 43437  98.6233  32.0842 0001391  98.4512 261.6826 14.26810378 30145
1 43437U 18039A   18327.77318779 -.00000010 +00000-0 +13877-4 0  9994
2 43437 098.6229 032.6366 0001369 096.0658 264.0678 14.26808527030221
1 43437U 18039A   18328.19396820 -.00000008  00000-0  14527-4 0  9994
2 43437  98.6229  33.0513 0001666  85.2632 274.8739 14.26718001 30282
1 43437U 18039A   18328.61475315 -.00000008 +00000-0 +14668-4 0  9994
2 43437 098.6228 033.4657 0001655 085.1974 274.9396 14.26717565030341
1 43437U 18039A   18328.75501477 -.00000008 +00000-0 +14555-4 0  9993
2 43437 098.6228 033.6041 0001648 083.9623 276.1746 14.26717718030364
1 43437U 18039A   18329.52645336 -.00000013  00000-0  12832-4 0  9994
2 43437  98.6227  34.3640 0001606  83.7318 276.4045 14.26718074 30472
1 43437U 18039A   18329.59658414 -.00000013 +00000-0 +12623-4 0  9990
2 43437 098.6227 034.4330 0001605 083.6638 276.4725 14.26718101030489
1 43437U 18039A   18329.80697658 -.00000015 +00000-0 +11987-4 0  9991
2 43437 098.6226 034.6403 0001600 083.2537 276.8826 14.26718032030513
1 43437U 18039A   18330.57841532 -.00000019  00000-0  10256-4 0  9991
2 43437  98.6225  35.4002 0001590  82.7004 277.4357 14.26718099 30628
1 43437U 18039A   18330.57841532 -.00000019 +00000-0 +10256-4 0  9991
2 43437 098.6225 035.4002 0001590 082.7004 277.4357 14.26718099030628
1 43437U 18039A   18331.63037710  .00000003  00000-0  19233-4 0  9990
2 43437  98.6224  36.4366 0001549  80.0507 280.0848 14.26718260 30775
1 43437U 18039A   18332.19141159  .00000002  00000-0  18683-4 0  9992
2 43437  98.6225  36.9896 0001469  81.0390 279.0956 14.26738153 30851
1 43437U 18039A   18333.52387778 -.00000008  00000-0  14884-4 0  9995
2 43437  98.6220  38.3021 0001486  81.1107 279.0241 14.26738350 31046
1 43437U 18039A   18333.80439685 +.00000142 +00000-0 +76638-4 0  9994
2 43437 098.6220 038.5785 0001477 080.9412 279.1935 14.26738724031081
1 43437U 18039A   18334.78621399  .00000019  00000-0  26015-4 0  9994
2 43437  98.6221  39.5457 0001467  80.0129 280.1217 14.26738615 31224
1 43437U 18039A   18335.76803107 -.00000002 +00000-0 +17195-4 0  9994
2 43437 098.6220 040.5129 0001442 078.8392 281.2950 14.26738627031365
1 43437U 18039A   18336.18880978  .00000005  00000-0  19896-4 0  9994
2 43437  98.6219  40.9275 0001426  78.3366 281.7974 14.26738682 31426
1 43437U 18039A   18336.81997785 -.00000003 +00000-0 +16712-4 0  9992
2 43437 098.6219 041.5492 0001412 077.9094 282.2244 14.26738686031512
1 43437U 18039A   18337.80179483 -.00000012  00000-0  13134-4 0  9994
2 43437  98.6218  42.5165 0001398  78.0430 282.0907 14.26738726 31652
1 43437U 18039A   18338.64335217 -.00000001 +00000-0 +17497-4 0  9990
2 43437 098.6217 043.3454 0001382 077.3137 282.8198 14.26738862031774
1 43437U 18039A   18339.20439038  .00000004  00000-0  19685-4 0  9992
2 43437  98.6216  43.8981 0001369  76.7658 283.3675 14.26738921 31850
1 43437U 18039A   18339.62516903 +.00000008 +00000-0 +21501-4 0  9999
2 43437 098.6216 044.3125 0001357 076.8664 283.2668 14.26738961031913
1 43437U 18039A   18340.81737519 +.00000009 +00000-0 +21560-4 0  9996
2 43437 098.6213 045.4870 0001337 075.8548 284.2781 14.26739033032084
1 43437U 18039A   18341.23815376  .00000011  00000-0  22602-4 0  9992
2 43437  98.6213  45.9015 0001324  75.7232 284.4095 14.26739101 32148
1 43437U 18039A   18341.79919187 +.00000006 +00000-0 +20615-4 0  9994
2 43437 098.6211 046.4541 0001312 075.4977 284.6349 14.26739137032228
1 43437U 18039A   18342.78100854  .00000006  00000-0  20409-4 0  9998
2 43437  98.6210  47.4212 0001294  74.8411 285.2912 14.26739232 32362
1 43437U 18039A   18343.76282513 +.00000009 +00000-0 +21626-4 0  9995
2 43437 098.6208 048.3883 0001273 074.0388 286.0933 14.26739338032500
1 43437U 18039A   18344.18360363  .00000008  00000-0  21391-4 0  9990
2 43437  98.6207  48.8028 0001262  73.3474 286.7845 14.26739385 32568
1 43437U 18039A   18344.60438208 +.00000016 +00000-0 +24522-4 0  9999
2 43437 098.6206 049.2172 0001254 072.9453 287.1865 14.26739488032623
1 43437U 18039A   18345.30567946  .00000016  00000-0  24595-4 0  9999
2 43437  98.6205  49.9080 0001237  72.4798 287.6518 14.26739589 32728
1 43437U 18039A   18346.56801476  .00000004  00000-0  19790-4 0  9995
2 43437  98.6203  51.1513 0001215  72.1206 288.0107 14.26739707 32900
1 43437U 18039A   18347.76022492  .00000002  00000-0  18953-4 0  9999
2 43437  98.6319  52.3290 0001180  74.1897 285.9413 14.26733696 33078
1 43437U 18039A   18348.81217521 -.00000005  00000-0  16008-4 0  9998
2 43437  98.6315  53.3665 0001171  68.7734 291.3571 14.26733797 33225
1 43437U 18039A   18349.79399527 -.00000008 +00000-0 +14895-4 0  9998
2 43437 098.6316 054.3349 0001130 068.8926 291.2375 14.26733881033365
1 43437U 18039A   18350.14464532 -.00000008  00000-0  14791-4 0  9993
2 43437  98.6316  54.6807 0001122  69.1002 291.0299 14.26733913 33412
1 43437U 18039A   18350.77581542 -.00000014 +00000-0 +12232-4 0  9998
2 43437 098.6315 055.3031 0001109 068.7356 291.3943 14.26733925033502
1 43437U 18039A   18351.19659545 -.00000011  00000-0  13669-4 0  9996
2 43437  98.6315  55.7181 0001096  68.4509 291.6788 14.26733966 33565
1 43437U 18039A   18351.75763552 -.00000013 +00000-0 +12656-4 0  9999
2 43437 098.6314 056.2714 0001082 068.0646 292.0649 14.26733975033645
1 43437U 18039A   18352.52906553 -.00000012  00000-0  13174-4 0  9990
2 43437  98.6314  57.0322 0001053  67.7479 292.3813 14.26734028 33755
1 43437U 18039A   18352.80958554 -.00000013 +00000-0 +12640-4 0  9997
2 43437 098.6313 057.3088 0001045 067.5484 292.5807 14.26734035033798
1 43437U 18039A   18353.58101548 -.00000007 +00000-0 +15131-4 0  9997
2 43437 098.6312 058.0696 0001018 067.4947 292.6341 14.26734142033909
1 43437U 18039A   18353.79140547 -.00000006  00000-0  15745-4 0  9992
2 43437  98.6312  58.2770 0001014  67.4570 292.6718 14.26734163 33936
1 43437U 18039A   18354.28231543 +.00000002 +00000-0 +19049-4 0  9990
2 43437 098.6311 058.7611 0000995 067.3805 292.7480 14.26734228034009
1 43437U 18039A   18354.84335537 +.00000010 +00000-0 +22349-4 0  9996
2 43437 098.6310 059.3144 0000985 067.4740 292.6545 14.26734299034081
1 43437U 18039A   18355.19400539  .00000008  00000-0  21552-4 0  9992
2 43437  98.6309  59.6602 0000980  66.2562 293.8722 14.26734315 34130
1 43437U 18039A   18355.68491533 +.00000010 +00000-0 +22139-4 0  9995
2 43437 098.6309 060.1443 0000968 066.3117 293.8165 14.26734357034208
1 43437U 18039A   18356.59660515 +.00000006 +00000-0 +20553-4 0  9997
2 43437 098.6307 061.0433 0000943 066.6019 293.5261 14.26734423034334
1 43437U 18039A   18356.80699510  .00000004  00000-0  19600-4 0  9997
2 43437  98.6306  61.2508 0000936  66.4328 293.6951 14.26734420 34368
1 43437U 18039A   18357.78881485 -.00000001 +00000-0 +17710-4 0  9997
2 43437 098.6305 062.2189 0000910 066.5951 293.5325 14.26734500034507
1 43437U 18039A   18358.20959468  .00000002  00000-0  18828-4 0  9993
2 43437  98.6304  62.6339 0000891  66.4560 293.6714 14.26734559 34563
1 43437U 18039A   18358.77063451 +.00000002 +00000-0 +18938-4 0  9995
2 43437 098.6303 063.1871 0000881 066.5468 293.5805 14.26734602034644
1 43437U 18039A   18359.54206416  .00000005  00000-0  20065-4 0  9998
2 43437  98.6302  63.9478 0000850  66.3442 293.7828 14.26734688 34753
1 43437U 18039A   18359.82258403 +.00000003 +00000-0 +19323-4 0  9995
2 43437 098.6302 064.2244 0000843 066.2978 293.8290 14.26734705034791
1 43437U 18039A   18360.80440351 -.00000007  00000-0  15283-4 0  9996
2 43437  98.6300  65.1925 0000808  66.5724 293.5542 14.26734782 34936
1 43437U 18039A   18361.57583310 -.00000014 +00000-0 +12429-4 0  9991
2 43437 098.6299 065.9531 0000784 067.6271 292.4992 14.26734842035043
1 43437U 18039A   18361.78622297 -.00000014 +00000-0 +12072-4 0  9996
2 43437 098.6299 066.1606 0000781 067.5643 292.5620 14.26734859035078
1 43437U 18039A   18362.20700272 -.00000013  00000-0  12619-4 0  9990
2 43437  98.6298  66.5755 0000765  67.5452 292.5809 14.26734907 35136
1 43437U 18039A   18362.76804240 -.00000013 +00000-0 +12725-4 0  9999
2 43437 098.6298 067.1286 0000752 067.8647 292.2613 14.26734944035217
1 43437U 18039A   18363.53947191 -.00000012  00000-0  12909-4 0  9991
2 43437  98.6297  67.8893 0000730  68.8409 291.2849 14.26735007 35323
1 43437U 18039A   18363.60960185 -.00000012 +00000-0 +13179-4 0  9997
2 43437 098.6297 067.9584 0000725 069.3180 290.8078 14.26735021035333
1 43437U 18039A   18363.81999170 -.00000010 +00000-0 +13728-4 0  9994
2 43437 098.6297 068.1659 0000722 069.5632 290.5626 14.26735038035367
1 43437U 18039A   18364.31090137 -.00000011 +00000-0 +13479-4 0  9999
2 43437 098.6296 068.6500 0000709 069.4410 290.6847 14.26735083035438
